{
  "type": "FeatureCollection",
  "features": [
    {
      "type": "Feature",
      "properties": {
        "internet_access": "no",
        "name": "Hauz Khas (Yellow Line)",
        "name:ar": "\u062d\u0648\u0636 \u062e\u0627\u0635",
        "name:fa": "\u062d\u0648\u0636 \u062e\u0627\u0635 (\u062e\u0637 \u0632\u0631\u062f)",
        "name:hi": "\u0939\u094c\u091c\u093c \u0916\u093e\u0938",
        "name:kn": "\u0cb9\u0ccc\u0cb8\u0ccd \u0c96\u0cbe\u0c9c\u0cbc\u0ccd",
        "name:ru": "\u0425\u0430\u0443\u0441 \u041a\u0430\u0441",
        "name:ur": "\u062d\u0648\u0636 \u062e\u0627\u0635",
        "network": "Delhi Metro",
        "note": "Contributors are requested to not edit the \"network\" and the \"operator\" tags. (2023/06/22)",
        "operator": "Delhi Metro Rail Corporation Limited",
        "payment:cards": "yes",
        "payment:cash": "yes",
        "payment:coins": "yes",
        "payment:contactless": "yes",
        "payment:electronic_purses": "yes",
        "public_transport": "station",
        "railway": "station",
        "ref": "HKS",
        "station": "subway",
        "subway": "yes",
        "wikidata": "Q5683002",
        "wikipedia": "en:Hauz Khas metro station",
        "_osm_type": "node",
        "_osm_id": 554257787,
        "_source": "OpenStreetMap contributors via Overpass API (https://overpass-api.de/api/interpreter)",
        "_fetched_at": "2026-07-07T07:27:55Z",
        "_status": "ok",
        "_note": "Overpass bbox query, 8 raw elements (8 node/way features kept)."
      },
      "geometry": {
        "type": "Point",
        "coordinates": [
          77.2067072,
          28.5442564
        ]
      }
    },
    {
      "type": "Feature",
      "properties": {
        "depth": "32",
        "name": "Hauz Khas (Magenta Line)",
        "name:ar": "\u062d\u0648\u0636 \u062e\u0627\u0635",
        "name:fa": "\u062d\u0648\u0636 \u062e\u0627\u0635 (\u062e\u0637 \u0633\u0631\u062e\u0627\u0628\u06cc)",
        "name:hi": "\u0939\u094c\u091c\u093c \u0916\u093e\u0938",
        "name:ru": "\u0425\u0430\u0443\u0441 \u041a\u0430\u0441",
        "name:ur": "\u062d\u0648\u0636 \u062e\u0627\u0635",
        "network": "Delhi Metro",
        "note": "Contributors are requested to not edit the \"network\" and the \"operator\" tags. (2023/06/22)",
        "operator": "Delhi Metro Rail Corporation Limited",
        "public_transport": "station",
        "railway": "station",
        "ref": "HKS",
        "station": "subway",
        "subway": "yes",
        "wikidata": "Q5683002",
        "wikipedia": "en:Hauz Khas metro station",
        "_osm_type": "node",
        "_osm_id": 2832938172,
        "_source": "OpenStreetMap contributors via Overpass API (https://overpass-api.de/api/interpreter)",
        "_fetched_at": "2026-07-07T07:27:55Z",
        "_status": "ok",
        "_note": "Overpass bbox query, 8 raw elements (8 node/way features kept)."
      },
      "geometry": {
        "type": "Point",
        "coordinates": [
          77.2050447,
          28.5433691
        ]
      }
    },
    {
      "type": "Feature",
      "properties": {
        "name": "Panchsheel Park",
        "name:ar": "\u062d\u062f\u064a\u0642\u0629 \u0628\u0627\u0646\u0634\u064a\u0644",
        "name:fa": "\u067e\u0627\u0631\u06a9 \u067e\u0646\u0686\u0634\u06cc\u0644",
        "name:hi": "\u092a\u0902\u091a\u0936\u0940\u0932 \u092a\u093e\u0930\u094d\u0915",
        "name:ur": "\u067e\u0646\u0686\u0634\u06cc\u0644 \u067e\u0627\u0631\u06a9",
        "network": "Delhi Metro",
        "note": "Contributors are requested to not edit the \"network\" and the \"operator\" tags. (2023/06/22)",
        "operator": "Delhi Metro Rail Corporation Limited",
        "public_transport": "station",
        "railway": "station",
        "ref": "PSPK",
        "station": "subway",
        "subway": "yes",
        "wikidata": "Q28172601",
        "wikipedia": "en:Panchsheel Park metro station",
        "_osm_type": "node",
        "_osm_id": 2833058721,
        "_source": "OpenStreetMap contributors via Overpass API (https://overpass-api.de/api/interpreter)",
        "_fetched_at": "2026-07-07T07:27:55Z",
        "_status": "ok",
        "_note": "Overpass bbox query, 8 raw elements (8 node/way features kept)."
      },
      "geometry": {
        "type": "Point",
        "coordinates": [
          77.2210916,
          28.5423747
        ]
      }
    },
    {
      "type": "Feature",
      "properties": {
        "name": "R. K. Puram",
        "name:fa": "\u0622\u0631. \u06a9\u06cc. \u067e\u0648\u0631\u0645",
        "name:hi": "\u0906\u0930. \u0915\u0947. \u092a\u0941\u0930\u092e",
        "network": "Delhi Metro",
        "note": "Contributors are requested to not edit the \"network\" and the \"operator\" tags. (2023/06/22)",
        "operator": "Delhi Metro Rail Corporation Limited",
        "public_transport": "station",
        "railway": "station",
        "ref": "RKPM",
        "station": "subway",
        "subway": "yes",
        "wikidata": "Q28172592",
        "wikipedia": "en:R. K. Puram metro station",
        "_osm_type": "node",
        "_osm_id": 2833058722,
        "_source": "OpenStreetMap contributors via Overpass API (https://overpass-api.de/api/interpreter)",
        "_fetched_at": "2026-07-07T07:27:55Z",
        "_status": "ok",
        "_note": "Overpass bbox query, 8 raw elements (8 node/way features kept)."
      },
      "geometry": {
        "type": "Point",
        "coordinates": [
          77.1855231,
          28.5503805
        ]
      }
    },
    {
      "type": "Feature",
      "properties": {
        "layer": "-1",
        "name": "IIT Delhi",
        "name:fa": "\u0622\u06cc\u200c\u0622\u06cc\u200c\u062a\u06cc \u062f\u0647\u0644\u06cc",
        "name:hi": "\u0906\u0908\u0906\u0908\u091f\u0940 \u0926\u093f\u0932\u094d\u0932\u0940",
        "network": "Delhi Metro",
        "note": "Contributors are requested to not edit the \"network\" and the \"operator\" tags. (2023/06/22)",
        "operator": "Delhi Metro Rail Corporation Limited",
        "public_transport": "station",
        "railway": "station",
        "ref": "IIT",
        "station": "subway",
        "subway": "yes",
        "wikidata": "Q28169973",
        "wikipedia": "en:IIT Delhi metro station",
        "_osm_type": "node",
        "_osm_id": 6485904396,
        "_source": "OpenStreetMap contributors via Overpass API (https://overpass-api.de/api/interpreter)",
        "_fetched_at": "2026-07-07T07:27:55Z",
        "_status": "ok",
        "_note": "Overpass bbox query, 8 raw elements (8 node/way features kept)."
      },
      "geometry": {
        "type": "Point",
        "coordinates": [
          77.1945546,
          28.5470121
        ]
      }
    },
    {
      "type": "Feature",
      "properties": {
        "name": "A.I.I.M.S.",
        "name:fa": "\u0627\u06cc\u0645\u0632",
        "name:hi": "\u090f\u092e\u094d\u091c\u093c",
        "name:kn": "\u0c8f\u0c90\u0c90\u0c8e\u0cae\u0ccd\u0c8e\u0cb8\u0ccd",
        "name:ru": "\u0418\u043d\u0434\u0438\u0439\u0441\u043a\u0438\u0439 \u0438\u043d\u0441\u0442\u0438\u0442\u0443\u0442 \u043d\u0430\u0443\u0447\u043d\u043e\u0439 \u043c\u0435\u0434\u0438\u0446\u0438\u043d\u044b",
        "network": "Delhi Metro",
        "note": "Contributors are requested to not edit the \"network\" and the \"operator\" tags. (2023/06/22)",
        "operator": "Delhi Metro Rail Corporation Limited",
        "payment:cards": "yes",
        "payment:cash": "yes",
        "payment:coins": "yes",
        "payment:contactless": "yes",
        "payment:electronic_purses": "yes",
        "public_transport": "station",
        "railway": "station",
        "ref": "AIIMS",
        "short_name": "AIIMS",
        "station": "subway",
        "subway": "yes",
        "wikidata": "Q4651928",
        "wikipedia": "en:AIIMS metro station",
        "_osm_type": "node",
        "_osm_id": 7018301883,
        "_source": "OpenStreetMap contributors via Overpass API (https://overpass-api.de/api/interpreter)",
        "_fetched_at": "2026-07-07T07:27:55Z",
        "_status": "ok",
        "_note": "Overpass bbox query, 8 raw elements (8 node/way features kept)."
      },
      "geometry": {
        "type": "Point",
        "coordinates": [
          77.2078058,
          28.5668602
        ]
      }
    },
    {
      "type": "Feature",
      "properties": {
        "name": "Green Park",
        "name:fa": "\u06af\u0631\u06cc\u0646 \u067e\u0627\u0631\u06a9",
        "name:hi": "\u0917\u094d\u0930\u0940\u0928 \u092a\u093e\u0930\u094d\u0915",
        "name:kn": "\u0c97\u0ccd\u0cb0\u0cc0\u0ca8\u0ccd \u0caa\u0cbe\u0cb0\u0ccd\u0c95\u0ccd",
        "name:ru": "\u0417\u0435\u043b\u0451\u043d\u044b\u0439 \u043f\u0430\u0440\u043a",
        "network": "Delhi Metro",
        "note": "Contributors are requested to not edit the \"network\" and the \"operator\" tags. (2023/06/22)",
        "operator": "Delhi Metro Rail Corporation Limited",
        "payment:cards": "yes",
        "payment:cash": "yes",
        "payment:coins": "yes",
        "payment:contactless": "yes",
        "payment:electronic_purses": "yes",
        "public_transport": "station",
        "railway": "station",
        "ref": "GNPK",
        "station": "subway",
        "subway": "yes",
        "wikidata": "Q5602948",
        "wikipedia": "en:Green Park metro station",
        "_osm_type": "node",
        "_osm_id": 7018316585,
        "_source": "OpenStreetMap contributors via Overpass API (https://overpass-api.de/api/interpreter)",
        "_fetched_at": "2026-07-07T07:27:55Z",
        "_status": "ok",
        "_note": "Overpass bbox query, 8 raw elements (8 node/way features kept)."
      },
      "geometry": {
        "type": "Point",
        "coordinates": [
          77.2067933,
          28.5580071
        ]
      }
    },
    {
      "type": "Feature",
      "properties": {
        "name": "Malviya Nagar",
        "name:fa": "\u0645\u0627\u0644\u0648\u06cc\u0627 \u0646\u06af\u0631",
        "name:hi": "\u092e\u093e\u0932\u0935\u0940\u092f \u0928\u0917\u0930",
        "name:kn": "\u0cae\u0cbe\u0cb3\u0ccd\u0cb5\u0cbf\u0caf \u0ca8\u0c97\u0cb0\u0ccd",
        "name:ru": "\u041c\u0430\u043b\u044c\u0432\u0438\u044f \u041d\u0430\u0433\u0430\u0440",
        "name:ur": "\u0645\u0627\u0644\u0648\u06cc\u06c1 \u0646\u06af\u0631",
        "network": "Delhi Metro",
        "note": "Contributors are requested to not edit the \"network\" and the \"operator\" tags. (2023/06/22)",
        "operator": "Delhi Metro Rail Corporation Limited",
        "payment:cards": "yes",
        "payment:cash": "yes",
        "payment:coins": "yes",
        "payment:contactless": "yes",
        "payment:electronic_purses": "yes",
        "public_transport": "station",
        "railway": "station",
        "ref": "MVNR",
        "station": "subway",
        "subway": "yes",
        "wikidata": "Q6745134",
        "wikipedia": "en:Malviya Nagar metro station",
        "_osm_type": "node",
        "_osm_id": 7018316591,
        "_source": "OpenStreetMap contributors via Overpass API (https://overpass-api.de/api/interpreter)",
        "_fetched_at": "2026-07-07T07:27:55Z",
        "_status": "ok",
        "_note": "Overpass bbox query, 8 raw elements (8 node/way features kept)."
      },
      "geometry": {
        "type": "Point",
        "coordinates": [
          77.2048241,
          28.5290656
        ]
      }
    }
  ],
  "_source": "OpenStreetMap contributors via Overpass API (https://overpass-api.de/api/interpreter)",
  "_fetched_at": "2026-07-07T07:27:55Z",
  "_status": "ok",
  "_note": "Overpass bbox query, 8 raw elements (8 node/way features kept)."
}