{
  "type": "FeatureCollection",
  "features": [
    {
      "type": "Feature",
      "properties": {
        "name": "Sri Aurobindo Marg CAAQMS",
        "theme": "air",
        "claim": "DPCC continuous monitor; ~AQI 137 in cleaner spells, but 399-657 (severe) in peak winter (Dec 2025). Live feed = AQICN station A567721.",
        "status_tag": "aq_station",
        "confidence": "high",
        "geometry_basis": "point",
        "_source": "AQICN / DPCC; The Statesman Feb 2026",
        "_source_url": "https://aqicn.org/station/india-south-delhi-delhi-sri-aurobindo-marg/",
        "_fetched_at": "2026-07-10",
        "_status": "ok"
      },
      "geometry": {
        "type": "Point",
        "coordinates": [
          77.194,
          28.531
        ]
      }
    },
    {
      "type": "Feature",
      "properties": {
        "name": "Mandir Marg CAAQMS",
        "theme": "air",
        "claim": "DPCC continuous monitor (CPCB station 17 of the Delhi-NCR CAAQMS network) in the New Delhi assembly segment.",
        "status_tag": "aq_station",
        "confidence": "high",
        "geometry_basis": "point",
        "_source": "AQICN / CPCB CAAQM station list (Delhi-NCR)",
        "_source_url": "https://aqicn.org/city/delhi/mandir-marg/",
        "_fetched_at": "2026-07-12",
        "_status": "ok"
      },
      "geometry": {
        "type": "Point",
        "coordinates": [
          77.2005,
          28.6341
        ]
      }
    },
    {
      "type": "Feature",
      "properties": {
        "name": "Lodhi Road CAAQMS",
        "theme": "air",
        "claim": "IMD continuous monitor (CPCB station 35 of the Delhi-NCR CAAQMS network), at Mausam Bhawan, Lodhi Road, near India Habitat Centre/Lodhi Garden, in the New Delhi assembly segment.",
        "status_tag": "aq_station",
        "confidence": "high",
        "geometry_basis": "point",
        "_source": "AQICN / IMD CAAQM station list (Delhi-NCR)",
        "_source_url": "https://aqicn.org/city/delhi/lodhi-road/",
        "_fetched_at": "2026-07-12",
        "_status": "ok"
      },
      "geometry": {
        "type": "Point",
        "coordinates": [
          77.22731,
          28.591824
        ]
      }
    },
    {
      "type": "Feature",
      "properties": {
        "name": "R.K. Puram CAAQMS",
        "theme": "air",
        "claim": "DPCC continuous monitor (CPCB station 25 of the Delhi-NCR CAAQMS network) in the R.K. Puram assembly segment -- a distinct station from Sri Aurobindo Marg, not a duplicate of it.",
        "status_tag": "aq_station",
        "confidence": "medium",
        "geometry_basis": "point",
        "_source": "AQICN / DPCC CAAQM station list (Delhi-NCR)",
        "_source_url": "https://aqicn.org/city/delhi/r.k.-puram/",
        "_fetched_at": "2026-07-12",
        "_status": "needs_verification",
        "_note": "exact station address/coordinates weren't published on the sources checked (AQICN page, CPCB station list PDFs) -- placed at the R.K. Puram AC centroid as an honest placeholder pending a precise address."
      },
      "geometry": {
        "type": "Point",
        "coordinates": [
          77.17011611550636,
          28.5656806662498
        ]
      }
    },
    {
      "type": "Feature",
      "properties": {
        "name": "Moti Nagar Flyover construction (Punjabi Bagh hotspot)",
        "theme": "air",
        "claim": "Construction of Moti Nagar Flyover identified by DPCC as a point air pollution source. Concerned dept: PWD.",
        "status_tag": "pollution_source",
        "confidence": "high",
        "geometry_basis": "point",
        "_source": "DPCC 'Inventory of major point air pollution sources in Delhi: Hotspots and other priority areas' (2023)",
        "_source_url": "https://www.dpcc.delhigovt.nic.in/uploads/news/ae9ce818bf8b9e12ddb90177ce3108c7.pdf",
        "_fetched_at": "2026-07-13",
        "_status": "ok",
        "_note": "point placed at the hotspot's OSM-geocoded anchor, not an independently geocoded address -- DPCC's own document describes several of these sources by aerial distance from the hotspot rather than a separate address."
      },
      "geometry": {
        "type": "Point",
        "coordinates": [
          77.1420875,
          28.6703201
        ]
      }
    },
    {
      "type": "Feature",
      "properties": {
        "name": "Ram Leela ground dust (Punjabi Bagh hotspot)",
        "theme": "air",
        "claim": "Ram Leela ground used as a driving-training park, causing dust emission. Concerned dept: MCD.",
        "status_tag": "pollution_source",
        "confidence": "high",
        "geometry_basis": "point",
        "_source": "DPCC 'Inventory of major point air pollution sources in Delhi: Hotspots and other priority areas' (2023)",
        "_source_url": "https://www.dpcc.delhigovt.nic.in/uploads/news/ae9ce818bf8b9e12ddb90177ce3108c7.pdf",
        "_fetched_at": "2026-07-13",
        "_status": "ok",
        "_note": "point placed at the hotspot's OSM-geocoded anchor, not an independently geocoded address -- DPCC's own document describes several of these sources by aerial distance from the hotspot rather than a separate address."
      },
      "geometry": {
        "type": "Point",
        "coordinates": [
          77.1420875,
          28.6703201
        ]
      }
    },
    {
      "type": "Feature",
      "properties": {
        "name": "Netaji Nagar Redevelopment + NBCC World Trade Centre construction (R.K. Puram hotspot)",
        "theme": "air",
        "claim": "Netaji Nagar Redevelopment Project and NBCC World Trade Centre Project, Nauroji Nagar, in the vicinity of the R.K. Puram hotspot. Concerned dept: NBCC.",
        "status_tag": "pollution_source",
        "confidence": "high",
        "geometry_basis": "point",
        "_source": "DPCC 'Inventory of major point air pollution sources in Delhi: Hotspots and other priority areas' (2023)",
        "_source_url": "https://www.dpcc.delhigovt.nic.in/uploads/news/ae9ce818bf8b9e12ddb90177ce3108c7.pdf",
        "_fetched_at": "2026-07-13",
        "_status": "ok",
        "_note": "point placed at the hotspot's OSM-geocoded anchor, not an independently geocoded address -- DPCC's own document describes several of these sources by aerial distance from the hotspot rather than a separate address."
      },
      "geometry": {
        "type": "Point",
        "coordinates": [
          77.19387,
          28.56852
        ]
      }
    },
    {
      "type": "Feature",
      "properties": {
        "name": "Safdarjung Railway Station redevelopment (New Moti Bagh hotspot)",
        "theme": "air",
        "claim": "Safdarjung Railway Station redevelopment work near Kaushal Bhawan/Hotel Leela Palace. Concerned dept: IRCON.",
        "status_tag": "pollution_source",
        "confidence": "high",
        "geometry_basis": "point",
        "_source": "DPCC 'Inventory of major point air pollution sources in Delhi: Hotspots and other priority areas' (2023)",
        "_source_url": "https://www.dpcc.delhigovt.nic.in/uploads/news/ae9ce818bf8b9e12ddb90177ce3108c7.pdf",
        "_fetched_at": "2026-07-13",
        "_status": "ok",
        "_note": "point placed at the hotspot's OSM-geocoded anchor, not an independently geocoded address -- DPCC's own document describes several of these sources by aerial distance from the hotspot rather than a separate address."
      },
      "geometry": {
        "type": "Point",
        "coordinates": [
          77.1728,
          28.58192
        ]
      }
    },
    {
      "type": "Feature",
      "properties": {
        "name": "Netaji Nagar Redevelopment (New Moti Bagh hotspot)",
        "theme": "air",
        "claim": "Netaji Nagar Redevelopment Work. Concerned dept: NBCC.",
        "status_tag": "pollution_source",
        "confidence": "high",
        "geometry_basis": "point",
        "_source": "DPCC 'Inventory of major point air pollution sources in Delhi: Hotspots and other priority areas' (2023)",
        "_source_url": "https://www.dpcc.delhigovt.nic.in/uploads/news/ae9ce818bf8b9e12ddb90177ce3108c7.pdf",
        "_fetched_at": "2026-07-13",
        "_status": "ok",
        "_note": "point placed at the hotspot's OSM-geocoded anchor, not an independently geocoded address -- DPCC's own document describes several of these sources by aerial distance from the hotspot rather than a separate address."
      },
      "geometry": {
        "type": "Point",
        "coordinates": [
          77.1728,
          28.58192
        ]
      }
    },
    {
      "type": "Feature",
      "properties": {
        "name": "Sarojini Nagar GPRA redevelopment (New Moti Bagh hotspot)",
        "theme": "air",
        "claim": "Sarojini Nagar GPRA and redevelopment work. Concerned dept: NBCC.",
        "status_tag": "pollution_source",
        "confidence": "high",
        "geometry_basis": "point",
        "_source": "DPCC 'Inventory of major point air pollution sources in Delhi: Hotspots and other priority areas' (2023)",
        "_source_url": "https://www.dpcc.delhigovt.nic.in/uploads/news/ae9ce818bf8b9e12ddb90177ce3108c7.pdf",
        "_fetched_at": "2026-07-13",
        "_status": "ok",
        "_note": "point placed at the hotspot's OSM-geocoded anchor, not an independently geocoded address -- DPCC's own document describes several of these sources by aerial distance from the hotspot rather than a separate address."
      },
      "geometry": {
        "type": "Point",
        "coordinates": [
          77.1728,
          28.58192
        ]
      }
    },
    {
      "type": "Feature",
      "properties": {
        "name": "Raheja Developers construction site (Shadipur hotspot)",
        "theme": "air",
        "claim": "Raheja Developers main EIA project at Patel Nagar Road (aerial distance approx. 680m from the monitoring station). Concerned: Project Proponent, DPCC.",
        "status_tag": "pollution_source",
        "confidence": "high",
        "geometry_basis": "point",
        "_source": "DPCC 'Inventory of major point air pollution sources in Delhi: Hotspots and other priority areas' (2023)",
        "_source_url": "https://www.dpcc.delhigovt.nic.in/uploads/news/ae9ce818bf8b9e12ddb90177ce3108c7.pdf",
        "_fetched_at": "2026-07-13",
        "_status": "ok",
        "_note": "point placed at the hotspot's OSM-geocoded anchor, not an independently geocoded address -- DPCC's own document describes several of these sources by aerial distance from the hotspot rather than a separate address."
      },
      "geometry": {
        "type": "Point",
        "coordinates": [
          77.1536389,
          28.6526021
        ]
      }
    },
    {
      "type": "Feature",
      "properties": {
        "name": "Delhi Milk Scheme (DMS) Campus dust/biomass burning (Shadipur hotspot)",
        "theme": "air",
        "claim": "Burning of biomass inside DMS Campus; dust along roads leading to the monitoring station and from campus parks. Concerned depts: PWD, MCD, DMS.",
        "status_tag": "pollution_source",
        "confidence": "high",
        "geometry_basis": "point",
        "_source": "DPCC 'Inventory of major point air pollution sources in Delhi: Hotspots and other priority areas' (2023)",
        "_source_url": "https://www.dpcc.delhigovt.nic.in/uploads/news/ae9ce818bf8b9e12ddb90177ce3108c7.pdf",
        "_fetched_at": "2026-07-13",
        "_status": "ok",
        "_note": "point placed at the hotspot's OSM-geocoded anchor, not an independently geocoded address -- DPCC's own document describes several of these sources by aerial distance from the hotspot rather than a separate address."
      },
      "geometry": {
        "type": "Point",
        "coordinates": [
          77.1536389,
          28.6526021
        ]
      }
    },
    {
      "type": "Feature",
      "properties": {
        "name": "DTC Depot Shadipur dust (Shadipur hotspot)",
        "theme": "air",
        "claim": "DTC Depot Shadipur (aerial distance approx. 535m) -- bus traffic and dust plying inside the depot flagged as a main PM2.5 source. Concerned depts: PWD, MCD, DTC.",
        "status_tag": "pollution_source",
        "confidence": "high",
        "geometry_basis": "point",
        "_source": "DPCC 'Inventory of major point air pollution sources in Delhi: Hotspots and other priority areas' (2023)",
        "_source_url": "https://www.dpcc.delhigovt.nic.in/uploads/news/ae9ce818bf8b9e12ddb90177ce3108c7.pdf",
        "_fetched_at": "2026-07-13",
        "_status": "ok",
        "_note": "point placed at the hotspot's OSM-geocoded anchor, not an independently geocoded address -- DPCC's own document describes several of these sources by aerial distance from the hotspot rather than a separate address."
      },
      "geometry": {
        "type": "Point",
        "coordinates": [
          77.15617,
          28.65381
        ]
      }
    },
    {
      "type": "Feature",
      "properties": {
        "name": "C&D sites near the Sirifort monitoring station",
        "theme": "air",
        "claim": "Construction & demolition sites, mostly under 500 sqm, within a 2km radius of the CAQM station. Concerned dept: MCD.",
        "status_tag": "pollution_source",
        "confidence": "high",
        "geometry_basis": "point",
        "_source": "DPCC 'Inventory of major point air pollution sources in Delhi: Hotspots and other priority areas' (2023)",
        "_source_url": "https://www.dpcc.delhigovt.nic.in/uploads/news/ae9ce818bf8b9e12ddb90177ce3108c7.pdf",
        "_fetched_at": "2026-07-13",
        "_status": "ok",
        "_note": "point placed at the hotspot's OSM-geocoded anchor, not an independently geocoded address -- DPCC's own document describes several of these sources by aerial distance from the hotspot rather than a separate address."
      },
      "geometry": {
        "type": "Point",
        "coordinates": [
          77.2247,
          28.55215
        ]
      }
    },
    {
      "type": "Feature",
      "properties": {
        "name": "Dusty service road near Sirifort monitoring station",
        "theme": "air",
        "claim": "~100m stretch of dusty service road with broken top-layer patches. Concerned dept: PWD.",
        "status_tag": "pollution_source",
        "confidence": "high",
        "geometry_basis": "point",
        "_source": "DPCC 'Inventory of major point air pollution sources in Delhi: Hotspots and other priority areas' (2023)",
        "_source_url": "https://www.dpcc.delhigovt.nic.in/uploads/news/ae9ce818bf8b9e12ddb90177ce3108c7.pdf",
        "_fetched_at": "2026-07-13",
        "_status": "ok",
        "_note": "point placed at the hotspot's OSM-geocoded anchor, not an independently geocoded address -- DPCC's own document describes several of these sources by aerial distance from the hotspot rather than a separate address."
      },
      "geometry": {
        "type": "Point",
        "coordinates": [
          77.2247,
          28.55215
        ]
      }
    },
    {
      "type": "Feature",
      "properties": {
        "name": "NITRD campus construction (Sri Aurobindo Marg hotspot)",
        "theme": "air",
        "claim": "Construction work inside NITRD Campus. Concerned dept: NITRD.",
        "status_tag": "pollution_source",
        "confidence": "high",
        "geometry_basis": "point",
        "_source": "DPCC 'Inventory of major point air pollution sources in Delhi: Hotspots and other priority areas' (2023)",
        "_source_url": "https://www.dpcc.delhigovt.nic.in/uploads/news/ae9ce818bf8b9e12ddb90177ce3108c7.pdf",
        "_fetched_at": "2026-07-13",
        "_status": "ok"
      },
      "geometry": {
        "type": "Point",
        "coordinates": [
          77.194,
          28.531
        ]
      }
    },
    {
      "type": "Feature",
      "properties": {
        "name": "Road-side dust near NITRD exit gate (Sri Aurobindo Marg hotspot)",
        "theme": "air",
        "claim": "Road-side dust near the NITRD exit gate. Concerned dept: PWD.",
        "status_tag": "pollution_source",
        "confidence": "high",
        "geometry_basis": "point",
        "_source": "DPCC 'Inventory of major point air pollution sources in Delhi: Hotspots and other priority areas' (2023)",
        "_source_url": "https://www.dpcc.delhigovt.nic.in/uploads/news/ae9ce818bf8b9e12ddb90177ce3108c7.pdf",
        "_fetched_at": "2026-07-13",
        "_status": "ok"
      },
      "geometry": {
        "type": "Point",
        "coordinates": [
          77.194,
          28.531
        ]
      }
    }
  ]
}