{
  "type": "FeatureCollection",
  "features": [],
  "_theme_note": "No public black-spot list (chronic dumping corners, illegal C&D waste dumping, drain-mouth dumping) exists for this constituency. MCD/NDMC publish collection-frequency targets but not an itemized dumping-spot dataset. Comparable crowd-sourced data may exist on platforms like Samaaj Data (samaajdata.org) but wasn't confirmed as fetchable at time of writing. This file is a scaffold pending field survey or a confirmed public source."
}